BEIDOU-2 IGSO-5         
1 37948U 11073A   26183.72937883 -.00000128  00000+0  00000+0 0  9990
2 37948  47.6496 271.3544 0114527 222.0502 141.5350  1.00270596 53296
LUCH-5A                 
1 37951U 11074B   26196.44756497 -.00000064  00000+0  00000+0 0  9997
2 37951   8.8235  73.3905 0002635  60.7728 127.2423  1.00273119 53335
BEIDOU-2 G5             
1 38091U 12008A   26196.85369582  .00000045  00000+0  00000+0 0  9999
2 38091   3.6427  69.5109 0007303 268.5441 321.6262  1.00270397 52657
BEIDOU-2 M3             
1 38250U 12018A   26194.49964644 -.00000069  00000+0  00000+0 0  9992
2 38250  55.7337 303.9888 0020987 272.3154  87.4648  1.86229839 96436
BEIDOU-2 M4             
1 38251U 12018B   26194.96895387 -.00000068  00000+0  00000+0 0  9991
2 38251  55.6331 303.1847 0012126 272.3588  87.5259  1.86229366 96449
SES-5                   
1 38652U 12036A   26196.84315396  .00000023  00000+0  00000+0 0  9992
2 38652   0.0450 321.8811 0001966 151.4519 128.8610  1.00271333 44742
BEIDOU-2 M6             
1 38775U 12050B   26196.28944259 -.00000042  00000+0  00000+0 0  9990
2 38775  56.5688  61.9653 0012896   1.6150 358.4640  1.86230879 93836
GSAT-10                 
1 38779U 12051B   26196.92989443 -.00000175  00000+0  00000+0 0  9997
2 38779   0.0894 264.6103 0007413 189.6517 257.2575  1.00272779 50385
NAVSTAR 67 (USA 239)    
1 38833U 12053A   26195.73730407  .00000002  00000+0  00000+0 0  9990
2 38833  53.5896 142.4706 0181992  66.2134 295.6400  2.00567894 99992
GSAT0103 (GALILEO-FM3)  
1 38857U 12055A   26194.28553299 -.00000030  00000+0  00000+0 0  9991
2 38857  55.8215 100.8292 0003756 311.8113  48.1723  1.70473329 85453
BEIDOU-2 G6             
1 38953U 12059A   26196.78727433 -.00000188  00000+0  00000+0 0  9996
2 38953   4.4912  73.2081 0008743 327.1453 260.6814  1.00273617 50197
LUCH-5B                 
1 38977U 12061A   26196.96173752 -.00000152  00000+0  00000+0 0  9995
2 38977  10.5442  49.5910 0003905 147.1555  67.0004  1.00270333 49891
COSMOS 2485 [GLONASS-M] 
1 39155U 13019A   26196.06559575 -.00000009  00000+0  00000+0 0  9991
2 39155  65.4351  72.6696 0022653 231.1274 128.7466  2.13103174102877
NAVSTAR 68 (USA 242)    
1 39166U 13023A   26196.60220495 -.00000009  00000+0  00000+0 0  9994
2 39166  54.4824 267.8149 0141388  51.1134 310.2184  2.00563312 96456
IRNSS-1A                
1 39199U 13034A   26191.72043649  .00000047  00000+0  00000+0 0  9995
2 39199  35.7704  63.5328 0017567 183.4462 356.2994  1.00281941 47601
NAVSTAR 69 (USA 248)    
1 39533U 14008A   26196.60401444  .00000011  00000+0  00000+0 0  9993
2 39533  53.6578 148.1607 0084090 231.5485 127.6542  2.00561577 90251
ASTRA 5B                
1 39617U 14011B   26196.91810771  .00000126  00000+0  00000+0 0  9998
2 39617   0.0754 302.6402 0001887 178.4839 166.6233  1.00268418 44954
COSMOS 2492 [GLONASS-M] 
1 39620U 14012A   26195.55517278 -.00000062  00000+0  00000+0 0  9998
2 39620  65.2800 313.0063 0010322 317.7862  42.1441  2.13103205 95828
IRNSS-1B                
1 39635U 14017A   26196.71042329  .00000127  00000+0  00000+0 0  9999
2 39635  28.8748 239.9111 0022284 191.7753 172.7664  1.00275936 45085
LUCH-5V                 
1 39727U 14023A   26196.71838748 -.00000282  00000+0  00000+0 0  9999
2 39727   5.2008  69.4407 0002077  84.8079 132.6532  1.00273438 44645
NAVSTAR 70 (USA 251)    
1 39741U 14026A   26196.38150432 -.00000095  00000+0  00000+0 0  9990
2 39741  56.4831 330.4202 0038141 325.7796  33.9711  2.00558840 89107
COSMOS 2500 [GLONASS-M] 
1 40001U 14032A   26196.19383985 -.00000061  00000+0  00000+0 0  9991
2 40001  65.2146 312.7295 0008262 190.4247 169.5708  2.13105781 94057
NAVSTAR 71 (USA 256)    
1 40105U 14045A   26195.97463324 -.00000025  00000+0  00000+0 0  9991
2 40105  55.3710  87.3578 0034406 118.3743 242.0239  2.00560212 86638
GSAT0201 (GALILEO 5)    
1 40128U 14050A   26196.44416801 -.00000031  00000+0  00000+0 0  9990
2 40128  48.8437 272.2762 1678655 180.5299 179.3301  1.85519399 78842
GSAT0202 (GALILEO 6)    
1 40129U 14050B   26195.08266193 -.00000018  00000+0  00000+0 0  9992
2 40129  48.8629 271.4179 1679589 181.1559 178.4672  1.85520425 80983
IRNSS-1C                
1 40269U 14061A   26196.64480086 -.00000176  00000+0  00000+0 0  9996
2 40269   6.5876  88.3904 0022071   5.4974 154.7765  1.00272263 42978
NAVSTAR 72 (USA 258)    
1 40294U 14068A   26195.84288523 -.00000065  00000+0  00000+0 0  9991
2 40294  57.0066  29.8902 0067406  72.2885 288.4955  2.00553162 85761
COSMOS 2501 [GLONASS-K] 
1 40315U 14075A   26195.04843601  .00000065  00000+0  00000+0 0  9998
2 40315  63.6185 189.4424 0022586 212.6579 147.2095  2.13101105 90428
NAVSTAR 73 (USA 260)    
1 40534U 15013A   26195.98439796  .00000050  00000+0  00000+0 0  9997
2 40534  53.1661 203.0279 0110344  40.3791 320.4565  2.00549648 82384
GSAT0203 (GALILEO 7)    
1 40544U 15017A   26195.78217272 -.00000099  00000+0  00000+0 0  9997
2 40544  56.7770 340.8444 0002640 255.9596 103.9964  1.70476177 69671
GSAT0204 (GALILEO 8)    
1 40545U 15017B   26196.03804107 -.00000100  00000+0  00000+0 0  9999
2 40545  56.7833 340.8561 0002805 234.5634 125.3958  1.70475668 32722
